{
    "links": {
        "self": "http://www.neowsapp.com/rest/v1/neo/3459879?api_key=iIulBulltgU6a56xZRHN4H3l9WmuAYTsLGpBGhQ2"
    },
    "id": "3459879",
    "neo_reference_id": "3459879",
    "name": "(2001 SL264)",
    "designation": "2001 SL264",
    "nasa_jpl_url": "http://ssd.jpl.nasa.gov/sbdb.cgi?sstr=3459879",
    "absolute_magnitude_h": 19.5,
    "estimated_diameter": {
        "kilometers": {
            "estimated_diameter_min": 0.3346223745,
            "estimated_diameter_max": 0.7482383761
        },
        "meters": {
            "estimated_diameter_min": 334.6223744549,
            "estimated_diameter_max": 748.2383760735
        },
        "miles": {
            "estimated_diameter_min": 0.2079246394,
            "estimated_diameter_max": 0.464933628
        },
        "feet": {
            "estimated_diameter_min": 1097.8424710066,
            "estimated_diameter_max": 2454.8503937571
        }
    },
    "is_potentially_hazardous_asteroid": false,
    "close_approach_data": [
        {
            "close_approach_date": "2001-08-28",
            "close_approach_date_full": "2001-Aug-28 21:38",
            "epoch_date_close_approach": 999034680000,
            "relative_velocity": {
                "kilometers_per_second": "1.6809184108",
                "kilometers_per_hour": "6051.30627899",
                "miles_per_hour": "3760.0463931869"
            },
            "miss_distance": {
                "astronomical": "0.3621483237",
                "lunar": "140.8756979193",
                "kilometers": "54176617.849590519",
                "miles": "33663789.3210824022"
            },
            "orbiting_body": "Earth"
        }
    ],
    "orbital_data": {
        "orbit_id": "6",
        "orbit_determination_date": "2017-04-06 09:16:05",
        "first_observation_date": "2001-09-11",
        "last_observation_date": "2001-10-17",
        "data_arc_in_days": 36,
        "observations_used": 21,
        "orbit_uncertainty": "7",
        "minimum_orbit_intersection": ".288696",
        "jupiter_tisserand_invariant": "3.605",
        "epoch_osculation": "2459000.5",
        "eccentricity": ".3999343609403162",
        "semi_major_axis": "2.136711949421339",
        "inclination": "5.325740465363745",
        "ascending_node_longitude": "38.50865894213757",
        "orbital_period": "1140.820705942697",
        "perihelion_distance": "1.282167421415979",
        "perihelion_argument": "280.751070867606",
        "aphelion_distance": "2.9912564774267",
        "perihelion_time": "2458964.889585243739",
        "mean_anomaly": "11.23730420168059",
        "mean_motion": ".3155622948678164",
        "equinox": "J2000",
        "orbit_class": {
            "orbit_class_type": "AMO",
            "orbit_class_description": "Near-Earth asteroid orbits similar to that of 1221 Amor",
            "orbit_class_range": "1.017 AU < q (perihelion) < 1.3 AU"
        }
    },
    "is_sentry_object": false
}